NORAD_CAT_ID,OBJECT_NAME,OBJECT_TYPE,EPOCH,MEAN_MOTION,ECCENTRICITY,INCLINATION,RA_OF_ASC_NODE,ARG_OF_PERICENTER,MEAN_ANOMALY,BSTAR,MEAN_MOTION_DOT,MEAN_MOTION_DDOT,TLE_LINE0,TLE_LINE1,TLE_LINE2,SEMIMAJOR_AXIS,PERIOD,APOGEE,PERIGEE,DECAYED
56466.0,STARLINK-6053,PAYLOAD,2024-04-27 20:00:18,14.98312297,0.0002935,70.001,61.0079,268.8455,91.2368,-0.00021536,-2.66e-05,0.0,0 STARLINK-6053,1 56466U 23064U   24118.83355176 -.00002660  00000-0 -21536-3 0  9992,2 56466  70.0010  61.0079 0002935 268.8455  91.2368 14.98312297 53628,6950.248,96.108,574.153,570.073,0.0
56466.0,STARLINK-6053,PAYLOAD,2024-04-27 21:36:26,14.98312503,0.0002946,70.0009,60.839,269.5331,90.549,-0.00020441,-2.53e-05,0.0,0 STARLINK-6053,1 56466U 23064U   24118.90031190 -.00002530  00000-0 -20441-3 0  9997,2 56466  70.0009  60.8390 0002946 269.5331  90.5490 14.98312503 53271,6950.247,96.108,574.16,570.064,0.0
56466.0,STARLINK-6053,PAYLOAD,2024-04-28 04:00:58,14.98319423,0.0002887,70.0007,60.1653,270.2383,89.8445,-0.00013176,-1.664e-05,0.0,0 STARLINK-6053,1 56466U 23064U   24119.16734747 -.00001664  00000-0 -13176-3 0  9998,2 56466  70.0007  60.1653 0002887 270.2383  89.8445 14.98319423 53677,6950.226,96.108,574.097,570.084,0.0
56466.0,STARLINK-6053,PAYLOAD,2024-04-28 13:37:46,14.98326736,0.000291,70.0006,59.1546,270.9395,89.1431,-6.5445e-05,-8.74e-06,0.0,0 STARLINK-6053,1 56466U 23064U   24119.56790262 -.00000874  00000-0 -65445-4 0  9995,2 56466  70.0006  59.1546 0002910 270.9395  89.1431 14.98326736 53372,6950.203,96.107,574.09,570.045,0.0
56466.0,STARLINK-6053,PAYLOAD,2024-04-28 21:38:26,14.98329472,0.0002918,70.0003,58.3132,270.5234,89.5591,-4.4899e-06,-1.47e-06,0.0,0 STARLINK-6053,1 56466U 23064U   24119.90169951 -.00000147  00000-0 -44899-5 0  9992,2 56466  70.0003  58.3132 0002918 270.5234  89.5591 14.98329472 53424,6950.195,96.107,574.088,570.031,0.0
56466.0,STARLINK-6053,PAYLOAD,2024-04-29 04:02:58,14.98335635,0.0003108,70.0001,57.6389,271.4038,88.6765,3.0144e-05,2.67e-06,0.0,0 STARLINK-6053,1 56466U 23064U   24120.16873464  .00000267  00000-0  30144-4 0  9991,2 56466  70.0001  57.6389 0003108 271.4038  88.6765 14.98335635 53827,6950.175,96.107,574.201,569.88,0.0
56466.0,STARLINK-6053,PAYLOAD,2024-04-29 13:39:46,14.98339355,0.0002971,70.0004,56.6291,269.4029,90.679,-5.2549e-05,-7.2e-06,0.0,0 STARLINK-6053,1 56466U 23064U   24120.56929243 -.00000720  00000-0 -52549-4 0  9991,2 56466  70.0004  56.6291 0002971 269.4029  90.6790 14.98339355 53526,6950.164,96.106,574.094,569.964,0.0
56466.0,STARLINK-6053,PAYLOAD,2024-04-29 20:04:19,14.9832036,0.0002915,70.0005,55.956,272.2414,87.8411,0.00018904,2.163e-05,0.0,0 STARLINK-6053,1 56466U 23064U   24120.83633857  .00002163  00000-0  18904-3 0  9991,2 56466  70.0005  55.9560 0002915 272.2414  87.8411 14.98320360 53924,6950.223,96.108,574.114,570.062,0.0
56466.0,STARLINK-6053,PAYLOAD,2024-04-29 21:40:27,14.98320787,0.0002914,70.0006,55.7877,272.2217,87.8609,0.00018891,2.161e-05,0.0,0 STARLINK-6053,1 56466U 23064U   24120.90309865  .00002161  00000-0  18891-3 0  9991,2 56466  70.0006  55.7877 0002914 272.2217  87.8609 14.98320787 53577,6950.221,96.108,574.112,570.061,0.0
56466.0,STARLINK-6053,PAYLOAD,2024-04-30 04:04:59,14.9832971,0.0002871,70.0006,55.1141,271.2846,88.7984,0.00017563,2.003e-05,0.0,0 STARLINK-6053,1 56466U 23064U   24121.17013414  .00002003  00000-0  17563-3 0  9993,2 56466  70.0006  55.1141 0002871 271.2846  88.7984 14.98329710 53979,6950.194,96.107,574.054,570.063,0.0
56466.0,STARLINK-6053,PAYLOAD,2024-04-30 05:41:07,14.98330793,0.0002864,70.0007,54.9458,271.2595,88.8236,0.00018337,2.096e-05,0.0,0 STARLINK-6053,1 56466U 23064U   24121.23689322  .00002096  00000-0  18337-3 0  9999,2 56466  70.0007  54.9458 0002864 271.2595  88.8236 14.98330793 53627,6950.19,96.107,574.046,570.065,0.0
56466.0,STARLINK-6053,PAYLOAD,2024-04-30 21:42:28,14.98328431,0.0002748,70.0009,53.2628,271.4899,88.5945,5.7812e-05,5.97e-06,0.0,0 STARLINK-6053,1 56466U 23064U   24121.90449785  .00000597  00000-0  57812-4 0  9996,2 56466  70.0009  53.2628 0002748 271.4899  88.5945 14.98328431 53721,6950.198,96.107,573.973,570.153,0.0
56466.0,STARLINK-6053,PAYLOAD,2024-05-01 04:07:00,14.98334343,0.0002914,70.0007,52.5897,270.6714,89.4111,-2.8139e-05,-4.29e-06,0.0,0 STARLINK-6053,1 56466U 23064U   24122.17153537 -.00000429  00000-0 -28139-4 0  9999,2 56466  70.0007  52.5897 0002914 270.6714  89.4111 14.98334343 54120,6950.179,96.107,574.07,570.019,0.0
56466.0,STARLINK-6053,PAYLOAD,2024-05-01 12:07:40,14.98340319,0.000282,70.001,51.7481,270.5261,89.5575,-0.00011109,-1.419e-05,0.0,0 STARLINK-6053,1 56466U 23064U   24122.50533223 -.00001419  00000-0 -11109-3 0  9998,2 56466  70.0010  51.7481 0002820 270.5261  89.5575 14.98340319 53816,6950.161,96.106,573.986,570.066,0.0
56466.0,STARLINK-6053,PAYLOAD,2024-05-02 04:09:00,14.98338969,0.0002721,70.0009,50.0658,266.3678,93.717,1.8514e-05,1.28e-06,0.0,0 STARLINK-6053,1 56466U 23064U   24123.17292730  .00000128  00000-0  18514-4 0  9999,2 56466  70.0009  50.0658 0002721 266.3678  93.7170 14.98338969 54274,6950.165,96.106,573.921,570.139,0.0
56466.0,STARLINK-6053,PAYLOAD,2024-05-02 20:10:21,14.98330576,0.000278,70.0008,48.3825,266.1919,93.8922,1.9768e-06,-6.9e-07,0.0,0 STARLINK-6053,1 56466U 23064U   24123.84053067 -.00000069  00000-0  19768-5 0  9999,2 56466  70.0008  48.3825 0002780 266.1919  93.8922 14.98330576 54373,6950.191,96.107,573.988,570.124,0.0
56466.0,STARLINK-6053,PAYLOAD,2024-05-03 12:11:42,14.98329666,0.0003293,70.0009,46.6995,269.9745,90.1037,-6.4435e-05,-8.62e-06,0.0,0 STARLINK-6053,1 56466U 23064U   24124.50813041 -.00000862  00000-0 -64435-4 0  9991,2 56466  70.0009  46.6995 0003293 269.9745  90.1037 14.98329666 54118,6950.194,96.107,574.348,569.77,0.0
56466.0,STARLINK-6053,PAYLOAD,2024-05-03 20:12:24,14.98314464,0.0002958,70.001,45.8582,267.8071,92.2749,-0.00023589,-2.905e-05,0.0,0 STARLINK-6053,1 56466U 23064U   24124.84194682 -.00002905  00000-0 -23589-3 0  9995,2 56466  70.0010  45.8582 0002958 267.8071  92.2749 14.98314464 54527,6950.241,96.108,574.162,570.05,0.0
56466.0,STARLINK-6053,PAYLOAD,2024-05-03 21:48:32,14.98314621,0.0002964,70.0009,45.6894,269.3555,90.7265,-0.00022523,-2.778e-05,0.0,0 STARLINK-6053,1 56466U 23064U   24124.90870702 -.00002778  00000-0 -22523-3 0  9991,2 56466  70.0009  45.6894 0002964 269.3555  90.7265 14.98314621 54172,6950.24,96.108,574.166,570.045,0.0
56466.0,STARLINK-6053,PAYLOAD,2024-05-04 12:13:44,14.98320635,0.0003122,70.0003,44.1737,270.7126,89.3676,-9.3606e-05,-1.209e-05,0.0,0 STARLINK-6053,1 56466U 23064U   24125.50954394 -.00001209  00000-0 -93606-4 0  9997,2 56466  70.0003  44.1737 0003122 270.7126  89.3676 14.98320635 54625,6950.222,96.108,574.257,569.917,0.0
56466.0,STARLINK-6053,PAYLOAD,2024-05-05 04:15:04,14.98327335,0.0003059,70.0009,42.4897,270.4992,89.5817,1.6958e-05,1.09e-06,0.0,0 STARLINK-6053,1 56466U 23064U   24126.17713992  .00000109  00000-0  16958-4 0  9999,2 56466  70.0009  42.4897 0003059 270.4992  89.5817 14.98327335 54720,6950.201,96.107,574.192,569.94,0.0
56466.0,STARLINK-6053,PAYLOAD,2024-05-05 20:16:24,14.98328517,0.0003165,70.0006,40.8072,270.3712,89.7084,0.00028875,3.354e-05,0.0,0 STARLINK-6053,1 56466U 23064U   24126.84473101  .00003354  00000-0  28875-3 0  9993,2 56466  70.0006  40.8072 0003165 270.3712  89.7084 14.98328517 54823,6950.197,96.107,574.262,569.863,0.0
56466.0,STARLINK-6053,PAYLOAD,2024-05-05 21:52:32,14.98329834,0.0003153,70.0007,40.6389,270.3658,89.714,0.00029597,3.44e-05,0.0,0 STARLINK-6053,1 56466U 23064U   24126.91149007  .00003440  00000-0  29597-3 0  9994,2 56466  70.0007  40.6389 0003153 270.3658  89.7140 14.98329834 54476,6950.193,96.107,574.25,569.867,0.0
56466.0,STARLINK-6053,PAYLOAD,2024-05-06 04:17:04,14.98340422,0.0003123,70.0006,39.9654,269.8695,90.2106,0.00032725,3.815e-05,0.0,0 STARLINK-6053,1 56466U 23064U   24127.17852182  .00003815  00000-0  32725-3 0  9991,2 56466  70.0006  39.9654 0003123 269.8695  90.2106 14.98340422 54871,6950.161,96.106,574.196,569.855,0.0
56466.0,STARLINK-6053,PAYLOAD,2024-05-06 20:18:25,14.98332685,0.0002793,70.0009,38.2826,269.791,90.2929,3.8335e-05,3.64e-06,0.0,0 STARLINK-6053,1 56466U 23064U   24127.84613352  .00000364  00000-0  38335-4 0  9999,2 56466  70.0009  38.2826 0002793 269.7910  90.2929 14.98332685 54974,6950.185,96.107,573.991,570.108,0.0
56466.0,STARLINK-6053,PAYLOAD,2024-05-06 21:54:33,14.98332772,0.0002796,70.0009,38.1143,269.7384,90.3454,3.7731e-05,3.57e-06,0.0,0 STARLINK-6053,1 56466U 23064U   24127.91289324  .00000357  00000-0  37731-4 0  9996,2 56466  70.0009  38.1143 0002796 269.7384  90.3454 14.98332772 54626,6950.184,96.107,573.993,570.106,0.0
56466.0,STARLINK-6053,PAYLOAD,2024-05-07 10:43:38,14.98331855,0.0002653,70.0012,36.7698,264.2644,95.8213,-3.9657e-05,-5.66e-06,0.0,0 STARLINK-6053,1 56466U 23064U   24128.44697404 -.00000566  00000-0 -39657-4 0  9990,2 56466  70.0012  36.7698 0002653 264.2644  95.8213 14.98331855 54703,6950.187,96.107,573.896,570.208,0.0
56466.0,STARLINK-6053,PAYLOAD,2024-05-07 20:20:27,14.98331963,0.0002447,70.0018,35.7589,257.7865,102.302,-0.00015601,-1.954e-05,0.0,0 STARLINK-6053,1 56466U 23064U   24128.84753583 -.00001954  00000-0 -15601-3 0  9999,2 56466  70.0018  35.7589 0002447 257.7865 102.3020 14.98331963 55127,6950.187,96.107,573.753,570.351,0.0
56466.0,STARLINK-6053,PAYLOAD,2024-05-07 21:56:35,14.98331363,0.0002442,70.0018,35.5906,256.5909,103.4978,-0.00015842,-1.983e-05,0.0,0 STARLINK-6053,1 56466U 23064U   24128.91429609 -.00001983  00000-0 -15842-3 0  9995,2 56466  70.0018  35.5906 0002442 256.5909 103.4978 14.98331363 54777,6950.189,96.107,573.751,570.356,0.0
56466.0,STARLINK-6053,PAYLOAD,2024-05-08 02:44:59,14.98331097,0.000251,70.0014,35.0863,263.5616,96.5258,-0.00018682,-2.321e-05,0.0,0 STARLINK-6053,1 56466U 23064U   24129.11457706 -.00002321  00000-0 -18682-3 0  9999,2 56466  70.0014  35.0863 0002510 263.5616  96.5258 14.98331097 54800,6950.189,96.107,573.799,570.31,0.0
